[
  { "name": "Afghanistan", "dial_code": "+93" },
  { "name": "Albania", "dial_code": "+355" },
  { "name": "Algeria", "dial_code": "+213" },
  { "name": "Andorra", "dial_code": "+376" },
  { "name": "Angola", "dial_code": "+244" },
  { "name": "Argentina", "dial_code": "+54" },
  { "name": "Armenia", "dial_code": "+374" },
  { "name": "Australia", "dial_code": "+61" },
  { "name": "Austria", "dial_code": "+43" },
  { "name": "Azerbaijan", "dial_code": "+994" },
  { "name": "Bahrain", "dial_code": "+973" },
  { "name": "Bangladesh", "dial_code": "+880" },
  { "name": "Belgium", "dial_code": "+32" },
  { "name": "Bhutan", "dial_code": "+975" },
  { "name": "Bolivia", "dial_code": "+591" },
  { "name": "Brazil", "dial_code": "+55" },
  { "name": "Cambodia", "dial_code": "+855" },
  { "name": "Cameroon", "dial_code": "+237" },
  { "name": "Canada", "dial_code": "+1" },
  { "name": "China", "dial_code": "+86" },
  { "name": "Colombia", "dial_code": "+57" },
  { "name": "Egypt", "dial_code": "+20" },
  { "name": "France", "dial_code": "+33" },
  { "name": "Germany", "dial_code": "+49" },
  { "name": "Ghana", "dial_code": "+233" },
  { "name": "Greece", "dial_code": "+30" },
  { "name": "India", "dial_code": "+91" },
  { "name": "Indonesia", "dial_code": "+62" },
  { "name": "Iran", "dial_code": "+98" },
  { "name": "Iraq", "dial_code": "+964" },
  { "name": "Ireland", "dial_code": "+353" },
  { "name": "Italy", "dial_code": "+39" },
  { "name": "Japan", "dial_code": "+81" },
  { "name": "Jordan", "dial_code": "+962" },
  { "name": "Kazakhstan", "dial_code": "+7" },
  { "name": "Kenya", "dial_code": "+254" },
  { "name": "Kuwait", "dial_code": "+965" },
  { "name": "Kyrgyzstan", "dial_code": "+996" },
  { "name": "Lebanon", "dial_code": "+961" },
  { "name": "Libya", "dial_code": "+218" },
  { "name": "Malaysia", "dial_code": "+60" },
  { "name": "Maldives", "dial_code": "+960" },
  { "name": "Mexico", "dial_code": "+52" },
  { "name": "Morocco", "dial_code": "+212" },
  { "name": "Nepal", "dial_code": "+977" },
  { "name": "Netherlands", "dial_code": "+31" },
  { "name": "New Zealand", "dial_code": "+64" },
  { "name": "Nigeria", "dial_code": "+234" },
  { "name": "Norway", "dial_code": "+47" },
  { "name": "Oman", "dial_code": "+968" },
  { "name": "Pakistan", "dial_code": "+92" },
  { "name": "Palestine", "dial_code": "+970" },
  { "name": "Philippines", "dial_code": "+63" },
  { "name": "Poland", "dial_code": "+48" },
  { "name": "Portugal", "dial_code": "+351" },
  { "name": "Qatar", "dial_code": "+974" },
  { "name": "Russia", "dial_code": "+7" },
  { "name": "Saudi Arabia", "dial_code": "+966" },
  { "name": "Singapore", "dial_code": "+65" },
  { "name": "South Africa", "dial_code": "+27" },
  { "name": "South Korea", "dial_code": "+82" },
  { "name": "Spain", "dial_code": "+34" },
  { "name": "Sri Lanka", "dial_code": "+94" },
  { "name": "Sudan", "dial_code": "+249" },
  { "name": "Sweden", "dial_code": "+46" },
  { "name": "Switzerland", "dial_code": "+41" },
  { "name": "Syria", "dial_code": "+963" },
  { "name": "Thailand", "dial_code": "+66" },
  { "name": "Turkey", "dial_code": "+90" },
  { "name": "Turkmenistan", "dial_code": "+993" },
  { "name": "UAE", "dial_code": "+971" },
  { "name": "UK", "dial_code": "+44" },
  { "name": "USA", "dial_code": "+1" },
  { "name": "Uzbekistan", "dial_code": "+998" },
  { "name": "Vietnam", "dial_code": "+84" },
  { "name": "Yemen", "dial_code": "+967" },
  { "name": "Zambia", "dial_code": "+260" },
  { "name": "Zimbabwe", "dial_code": "+263" }
]
